IRIDIUM 26              
1 24903U 97043A   25298.03525282  .00000677  00000+0  22081-3 0  9999
2 24903  86.3961  56.0241 0002129  87.5479 272.5962 14.37264892475392
IRIDIUM 22              
1 24907U 97043E   25298.07283148  .00000618  00000+0  20600-3 0  9999
2 24907  86.3959  59.6604 0001982  90.9095 269.2329 14.36065098475412
DUMMY MASS 1            
1 24925U 97048A   25297.88780927  .00000765  00000+0  82066-4 0  9997
2 24925  86.3320  75.3096 0008499  57.5951 302.6095 14.87112817524408
DUMMY MASS 2            
1 24926U 97048B   25297.87160297  .00000751  00000+0  80944-4 0  9997
2 24926  86.3317  76.9496 0009498  66.0095 294.2123 14.86863611524176
IRIDIUM 29              
1 24944U 97051A   25297.97934507  .00000731  00000+0  24226-3 0  9993
2 24944  86.3911  89.4191 0001951  95.1179 265.0241 14.36590408471904
IRIDIUM 33              
1 24946U 97051C   25298.17442410  .00000591  00000+0  20090-3 0  9994
2 24946  86.3828  88.6090 0008599  27.6988 332.4665 14.34982732471389
IRIDIUM 28              
1 24948U 97051E   25298.14935424  .00000719  00000+0  23379-3 0  9990
2 24948  86.3920  86.7872 0002289  77.3317 282.8136 14.37496140472512
IRIDIUM 36              
1 24967U 97056C   25298.02268382  .00000609  00000+0  19600-3 0  9995
2 24967  86.3927 118.4750 0001985  81.7102 278.4321 14.37716295470871
